{
"type": "FeatureCollection",
"name": "St_Asutell_feaure_masks",
"crs": { "type": "name", "properties": { "name": "urn:ogc:def:crs:EPSG::4278" } },
"features": [
{ "type": "Feature", "properties": { "Feature": "Pit" }, "geometry": { "type": "Polygon", "coordinates": [ [ [ -4.933118492542795, 50.370640590821587 ], [ -4.932959244220275, 50.367774121016232 ], [ -4.931366760995081, 50.367694496854973 ], [ -4.930490895221223, 50.365226147855921 ], [ -4.93168525764012, 50.363952161275769 ], [ -4.927942922060911, 50.357184107568685 ], [ -4.926430062996976, 50.356387865956087 ], [ -4.927305928770832, 50.355671248504756 ], [ -4.9249968280943, 50.352804778699401 ], [ -4.923563593191624, 50.354317637763337 ], [ -4.922926599901546, 50.354317637763337 ], [ -4.92165261332139, 50.352406657893098 ], [ -4.914486438808011, 50.35224740957058 ], [ -4.91464568713053, 50.353680644473258 ], [ -4.919263888483597, 50.35352139615074 ], [ -4.922448854933987, 50.35877659079388 ], [ -4.925872693868157, 50.359572832406478 ], [ -4.927305928770832, 50.363713288791985 ], [ -4.930092774414924, 50.364828027049626 ], [ -4.930013150253664, 50.367853745177499 ], [ -4.926270814674456, 50.365465020339705 ], [ -4.925793069706897, 50.360926443147896 ], [ -4.920617499225012, 50.359493208245219 ], [ -4.918626895193519, 50.357661852536246 ], [ -4.917432532774622, 50.359652456567737 ], [ -4.913053203905336, 50.359493208245219 ], [ -4.912018089808958, 50.358617342471362 ], [ -4.909071995842347, 50.360448698180335 ], [ -4.907798009262192, 50.361961557244271 ], [ -4.908594250874789, 50.364191033759546 ], [ -4.906444398520775, 50.365146523694662 ], [ -4.907957257584711, 50.366181637791037 ], [ -4.910266358261244, 50.365465020339705 ], [ -4.913053203905336, 50.363792912953251 ], [ -4.916556667000765, 50.36530577201718 ], [ -4.91814915022596, 50.369286980080169 ], [ -4.923404344869104, 50.368649986790096 ], [ -4.926430062996976, 50.369605476725212 ], [ -4.933118492542795, 50.370640590821587 ] ] ] } },
{ "type": "Feature", "properties": { "Feature": "Pit" }, "geometry": { "type": "Polygon", "coordinates": [ [ [ -4.920537875063753, 50.38935226871763 ], [ -4.920537875063753, 50.388715275427558 ], [ -4.923324720707845, 50.386485798912283 ], [ -4.925793069706897, 50.383619329106928 ], [ -4.925952318029417, 50.382424966688035 ], [ -4.924519083126741, 50.380115866011501 ], [ -4.925793069706897, 50.379797369366464 ], [ -4.923165472385325, 50.379001127753867 ], [ -4.921971109966429, 50.379399248560162 ], [ -4.922050734127688, 50.380275114334019 ], [ -4.919821257612415, 50.380991731785358 ], [ -4.917751029419661, 50.382982335816848 ], [ -4.917830653580921, 50.384734067364569 ], [ -4.917591781097141, 50.385848805622203 ], [ -4.917193660290843, 50.386804295557319 ], [ -4.91456606296927, 50.385769181460944 ], [ -4.913929069679193, 50.387839409653694 ], [ -4.917910277742181, 50.389830013685192 ], [ -4.920537875063753, 50.38935226871763 ] ] ] } },
{ "type": "Feature", "properties": { "Feature": "Pit" }, "geometry": { "type": "Polygon", "coordinates": [ [ [ -4.922289606611468, 50.377886389496226 ], [ -4.924120962320442, 50.378125261980003 ], [ -4.923404344869104, 50.375736537142217 ], [ -4.918865767677298, 50.376612402916074 ], [ -4.919662009289896, 50.378762255270082 ], [ -4.922289606611468, 50.377886389496226 ] ] ] } },
{ "type": "Feature", "properties": { "Feature": "Solar" }, "geometry": { "type": "Polygon", "coordinates": [ [ [ -4.900971888683107, 50.36025620149087 ], [ -4.900636320855593, 50.359646078168119 ], [ -4.901246444178345, 50.359402028839014 ], [ -4.900148222197392, 50.358258047608857 ], [ -4.896762037756116, 50.358395325356476 ], [ -4.894626606126484, 50.360271454573933 ], [ -4.894001229720663, 50.363184793440077 ], [ -4.894092748219076, 50.363672892098279 ], [ -4.897036593251356, 50.363764410596694 ], [ -4.897677222740245, 50.362696694781874 ], [ -4.900971888683107, 50.36025620149087 ] ] ] } },
{ "type": "Feature", "properties": { "Feature": "Industrial" }, "geometry": { "type": "Polygon", "coordinates": [ [ [ -4.89524446835297, 50.3696369810094 ], [ -4.894852052593573, 50.369106065570215 ], [ -4.896583298590911, 50.369013732450355 ], [ -4.896306299231337, 50.367397902852844 ], [ -4.895013635553325, 50.365805156535288 ], [ -4.893696159023812, 50.365075773500749 ], [ -4.893998492574856, 50.364815626026598 ], [ -4.893323515344618, 50.364288300065475 ], [ -4.892852437486015, 50.364288300065475 ], [ -4.89259229001186, 50.363796129168428 ], [ -4.892311049499261, 50.363880501322207 ], [ -4.892170429242962, 50.364077369681027 ], [ -4.891411079858944, 50.364808595013784 ], [ -4.890799381744041, 50.364611726654964 ], [ -4.890932970987526, 50.364372672219254 ], [ -4.889118969681261, 50.364288300065475 ], [ -4.889477551334825, 50.365005463372604 ], [ -4.890644699462111, 50.365539820346541 ], [ -4.892043871012292, 50.366074177320478 ], [ -4.891832940627842, 50.367290542537468 ], [ -4.892289956460815, 50.36742413178095 ], [ -4.892529010896524, 50.366418696948408 ], [ -4.893443042562471, 50.366474945050932 ], [ -4.89382271725448, 50.366692906448193 ], [ -4.894146143843969, 50.366910867845455 ], [ -4.894202391946489, 50.367234294434944 ], [ -4.894371136254049, 50.367417100768137 ], [ -4.893372732434321, 50.367332728614358 ], [ -4.893471166613732, 50.367663186216653 ], [ -4.892803220396309, 50.368408473575045 ], [ -4.892332142537706, 50.368542062818527 ], [ -4.892831344447568, 50.368682683074823 ], [ -4.892599321024675, 50.36902720270276 ], [ -4.891868095691917, 50.369217040048767 ], [ -4.891467327961464, 50.369301412202546 ], [ -4.891530607076798, 50.369435001446028 ], [ -4.89246573178119, 50.369575621702332 ], [ -4.892796189383493, 50.368724869151713 ], [ -4.893246174203652, 50.368134264075259 ], [ -4.893520383703436, 50.367649124191026 ], [ -4.893928182446705, 50.367817868498584 ], [ -4.893998492574855, 50.367937395716439 ], [ -4.894462539420643, 50.368099109011183 ], [ -4.894174267895229, 50.369406877394766 ], [ -4.894181298908044, 50.370152164753158 ], [ -4.893815686241665, 50.370117009689082 ], [ -4.893576631805955, 50.369892017279 ], [ -4.893274298254911, 50.370025606522489 ], [ -4.892796189383493, 50.369913110317448 ], [ -4.892831344447568, 50.370138102727523 ], [ -4.893921151433889, 50.370292785009454 ], [ -4.894441446382197, 50.370243567919751 ], [ -4.894244578023378, 50.369716241958628 ], [ -4.894378167266863, 50.369097512830912 ], [ -4.894378167266863, 50.369659993856111 ], [ -4.894736748920427, 50.369906079304634 ], [ -4.895299229945625, 50.369772490061145 ], [ -4.89524446835297, 50.3696369810094 ] ] ] } },
{ "type": "Feature", "properties": { "Feature": "Industrial" }, "geometry": { "type": "Polygon", "coordinates": [ [ [ -4.897092138213444, 50.368478783703189 ], [ -4.897176510367224, 50.368176450152149 ], [ -4.8967898046624, 50.368113171036811 ], [ -4.896839021752105, 50.368415504587858 ], [ -4.897092138213444, 50.368478783703189 ] ] ] } },
{ "type": "Feature", "properties": { "Feature": "Residential" }, "geometry": { "type": "Polygon", "coordinates": [ [ [ -4.900228095970458, 50.374219759230812 ], [ -4.901086264223995, 50.373809330935643 ], [ -4.900377342623247, 50.373342935145679 ], [ -4.900787770918417, 50.373044441840101 ], [ -4.899705732685695, 50.372428799397341 ], [ -4.899556486032906, 50.372167617754961 ], [ -4.897858805357428, 50.371160202848635 ], [ -4.897523000388653, 50.371197514511834 ], [ -4.89673945546151, 50.370712462890268 ], [ -4.896683487966714, 50.370880365374653 ], [ -4.897075260430285, 50.37121617034343 ], [ -4.896403650492734, 50.37246611106054 ], [ -4.899257992727327, 50.374070512578022 ], [ -4.899761700180491, 50.373809330935643 ], [ -4.900228095970458, 50.374219759230812 ] ] ] } },
{ "type": "Feature", "properties": { "Feature": "Residential" }, "geometry": { "type": "Polygon", "coordinates": [ [ [ -4.888784201101364, 50.383791289753511 ], [ -4.887396657071013, 50.381858639139807 ], [ -4.885166675593663, 50.381263977412516 ], [ -4.884076462426957, 50.378563222067726 ], [ -4.882515475392812, 50.378810997787426 ], [ -4.883556133415576, 50.380371984821572 ], [ -4.882218144529165, 50.381412642844339 ], [ -4.882218144529165, 50.381412642844339 ], [ -4.881400484654137, 50.381164867124632 ], [ -4.880954488358666, 50.381660418564046 ], [ -4.879096170460874, 50.38096664654887 ], [ -4.877287407707023, 50.381660418564046 ], [ -4.875924641248642, 50.384162953333067 ], [ -4.87674230112367, 50.384881502920216 ], [ -4.87758473857067, 50.384286841192925 ], [ -4.878377620873728, 50.385723940367214 ], [ -4.879368723752551, 50.386219491806628 ], [ -4.882143811813253, 50.387210594685449 ], [ -4.883085359548135, 50.385971716086921 ], [ -4.884572013866369, 50.384906280492189 ], [ -4.886851550487661, 50.385253166499773 ], [ -4.888784201101364, 50.383791289753511 ] ] ] } },
{ "type": "Feature", "properties": { "Feature": "Industrial" }, "geometry": { "type": "Polygon", "coordinates": [ [ [ -4.891509734018126, 50.378984440791221 ], [ -4.889453195544569, 50.377943782768455 ], [ -4.886430331764161, 50.378910108075303 ], [ -4.885587894317161, 50.37811722577225 ], [ -4.887396657071013, 50.377002235033572 ], [ -4.88818953937407, 50.37645712845022 ], [ -4.887768320650571, 50.375812911578983 ], [ -4.889378862828657, 50.37526780499563 ], [ -4.888808978673334, 50.37606068729869 ], [ -4.891782287309802, 50.375168694707753 ], [ -4.892847722904537, 50.375168694707753 ], [ -4.89168317702192, 50.376110242442635 ], [ -4.893194608912125, 50.377919005196482 ], [ -4.891509734018126, 50.378984440791221 ] ] ] } },
{ "type": "Feature", "properties": { "Feature": "Pit" }, "geometry": { "type": "Polygon", "coordinates": [ [ [ -4.846008853491162, 50.381514250940285 ], [ -4.852175306435888, 50.380712612057472 ], [ -4.851990312847547, 50.377999372761792 ], [ -4.851990312847547, 50.376272765937266 ], [ -4.847673795786238, 50.374854481759982 ], [ -4.843233949666035, 50.375902778760583 ], [ -4.845330543667242, 50.377012740290631 ], [ -4.845330543667242, 50.380712612057472 ], [ -4.846008853491162, 50.381514250940285 ] ] ] } },
{ "type": "Feature", "properties": { "Feature": "Pit" }, "geometry": { "type": "Polygon", "coordinates": [ [ [ -4.844165887781869, 50.38423265849157 ], [ -4.845123196761181, 50.382550899473863 ], [ -4.843286198449529, 50.381671210141519 ], [ -4.843648423468728, 50.380584535083926 ], [ -4.841837298372733, 50.380144690417751 ], [ -4.841086975118678, 50.378488804615699 ], [ -4.837412978495374, 50.378851029634902 ], [ -4.836688528456976, 50.380403422574325 ], [ -4.833247390774587, 50.382240420885978 ], [ -4.833247390774587, 50.383973926335003 ], [ -4.836196937359492, 50.385422826411798 ], [ -4.841475073353534, 50.38570743178402 ], [ -4.844165887781869, 50.38423265849157 ] ] ] } },
{ "type": "Feature", "properties": { "Feature": "Industrial" }, "geometry": { "type": "Polygon", "coordinates": [ [ [ -4.832574687167503, 50.384310278138543 ], [ -4.83216071571699, 50.3825250262582 ], [ -4.830815308502823, 50.382343913748606 ], [ -4.830220224542709, 50.381438351200607 ], [ -4.828590211956315, 50.381774703004147 ], [ -4.82846084587803, 50.383301222727916 ], [ -4.831488012109906, 50.384180912060259 ], [ -4.832574687167503, 50.384310278138543 ] ] ] } },
{ "type": "Feature", "properties": { "Feature": "Pit" }, "geometry": { "type": "Polygon", "coordinates": [ [ [ -4.836067571281207, 50.378799283203584 ], [ -4.83736123206406, 50.376082595559595 ], [ -4.836093444496864, 50.374944174070684 ], [ -4.833842474734699, 50.37468544191411 ], [ -4.832652306814474, 50.376134341990905 ], [ -4.831828780183322, 50.375569476173695 ], [ -4.830703054443078, 50.375117542482357 ], [ -4.829569111726628, 50.37500250481547 ], [ -4.827832564997488, 50.374614655811286 ], [ -4.82645174765622, 50.37311714968061 ], [ -4.824273556920698, 50.373233838470014 ], [ -4.824973689657115, 50.376948431599345 ], [ -4.827754772471219, 50.377648564335757 ], [ -4.829330071128159, 50.378562626519418 ], [ -4.830808129127263, 50.379340551782093 ], [ -4.830710888469428, 50.380682472860229 ], [ -4.832052809547561, 50.381090883623138 ], [ -4.832733494152412, 50.380896402307464 ], [ -4.831897224495024, 50.379943443860675 ], [ -4.834172655888382, 50.379807306939703 ], [ -4.836067571281207, 50.378799283203584 ] ] ] } },
{ "type": "Feature", "properties": { "Feature": "Pit" }, "geometry": { "type": "Polygon", "coordinates": [ [ [ -4.828976612936563, 50.380399195025021 ], [ -4.829257687054442, 50.379503271274288 ], [ -4.829038097899849, 50.378905988773795 ], [ -4.82716719830272, 50.378774235281043 ], [ -4.826780721390637, 50.378985040869445 ], [ -4.826578699368412, 50.380364060760286 ], [ -4.827088146207067, 50.381374170871418 ], [ -4.828370546869888, 50.381488357231802 ], [ -4.828669188120133, 50.38129511877576 ], [ -4.828976612936563, 50.380399195025021 ] ] ] } },
{ "type": "Feature", "properties": { "Feature": "Pit" }, "geometry": { "type": "Polygon", "coordinates": [ [ [ -4.82396418384412, 50.381087445979297 ], [ -4.825314163152509, 50.379998752988655 ], [ -4.825183519993633, 50.378496356661579 ], [ -4.82444320876, 50.37788668858682 ], [ -4.823746445245992, 50.378017331745696 ], [ -4.822483561376854, 50.377015734194316 ], [ -4.82261420453573, 50.378605225960641 ], [ -4.822113405760037, 50.378626999820455 ], [ -4.821786797862846, 50.379106024736338 ], [ -4.820545687853521, 50.380151170007345 ], [ -4.82141664224603, 50.381152767558731 ], [ -4.822505335236666, 50.382589842306373 ], [ -4.823136777171236, 50.38256806844656 ], [ -4.823310968049737, 50.381174541418545 ], [ -4.82396418384412, 50.381087445979297 ] ] ] } },
{ "type": "Feature", "properties": { "Feature": "Pit" }, "geometry": { "type": "Polygon", "coordinates": [ [ [ -4.842167066286792, 50.375721326578237 ], [ -4.845058142218671, 50.373408465832732 ], [ -4.845713452763231, 50.370710128296317 ], [ -4.845327975972314, 50.368782744341729 ], [ -4.839777110183105, 50.369476602565378 ], [ -4.837579892474877, 50.371789463310883 ], [ -4.839353085713096, 50.375644231220058 ], [ -4.842167066286792, 50.375721326578237 ] ] ] } },
{ "type": "Feature", "properties": { "Feature": "Pit" }, "geometry": { "type": "Polygon", "coordinates": [ [ [ -4.848720171732386, 50.373793942623649 ], [ -4.851996724455182, 50.37371684726547 ], [ -4.854039751447043, 50.372598964571807 ], [ -4.854116846805227, 50.371172700445413 ], [ -4.84902855316512, 50.369900627035385 ], [ -4.847255359926899, 50.370825771333585 ], [ -4.846176024912332, 50.372560416892718 ], [ -4.848720171732386, 50.373793942623649 ] ] ] } },
{ "type": "Feature", "properties": { "Feature": "Pit" }, "geometry": { "type": "Polygon", "coordinates": [ [ [ -4.843370757345436, 50.365494839575007 ], [ -4.843925446896877, 50.365138253434793 ], [ -4.842934929840733, 50.364652900077282 ], [ -4.84215242136638, 50.365336356846022 ], [ -4.842657585065012, 50.365564175768938 ], [ -4.843370757345436, 50.365494839575007 ] ] ] } },
{ "type": "Feature", "properties": { "Feature": "Pit" }, "geometry": { "type": "Polygon", "coordinates": [ [ [ -4.841062852604621, 50.365059012070304 ], [ -4.841478869768202, 50.36390010711461 ], [ -4.839656318384897, 50.363612857168334 ], [ -4.839398783950299, 50.364920339682442 ], [ -4.841062852604621, 50.365059012070304 ] ] ] } },
{ "type": "Feature", "properties": { "Feature": "Industrial" }, "geometry": { "type": "Polygon", "coordinates": [ [ [ -4.844163170990352, 50.364187357060892 ], [ -4.844153265819791, 50.363711908873945 ], [ -4.842865593646803, 50.363771339897312 ], [ -4.843341041833752, 50.364365650130999 ], [ -4.844163170990352, 50.364187357060892 ] ] ] } },
{ "type": "Feature", "properties": { "Feature": "Pit" }, "geometry": { "type": "Polygon", "coordinates": [ [ [ -4.78986976890191, 50.385607881639913 ], [ -4.792723411341689, 50.384130463922865 ], [ -4.789768575907591, 50.38380664634105 ], [ -4.788189965196224, 50.384616190295596 ], [ -4.787906624812133, 50.385688836035371 ], [ -4.789829291704183, 50.386113846611508 ], [ -4.78986976890191, 50.385607881639913 ] ] ] } },
{ "type": "Feature", "properties": { "Feature": "Industrial" }, "geometry": { "type": "Polygon", "coordinates": [ [ [ -4.78237016420325, 50.396184245485536 ], [ -4.782346398966109, 50.395114809814153 ], [ -4.780564006180477, 50.393475008451375 ], [ -4.779518335746238, 50.392880877522828 ], [ -4.778282543414867, 50.392619459914272 ], [ -4.777545821063472, 50.393237356079958 ], [ -4.777664647249181, 50.393879017482782 ], [ -4.776666507289226, 50.394687035545601 ], [ -4.7822275727804, 50.396659550228371 ], [ -4.78237016420325, 50.396184245485536 ] ] ] } },
{ "type": "Feature", "properties": { "Feature": "Solar" }, "geometry": { "type": "Polygon", "coordinates": [ [ [ -4.788591825247074, 50.3629984510209 ], [ -4.788464033018002, 50.361385074128869 ], [ -4.788064682302153, 50.361113515642089 ], [ -4.787361825042257, 50.361153450713672 ], [ -4.787010396412311, 50.360969749384388 ], [ -4.786347474224, 50.360969749384388 ], [ -4.785996045594053, 50.36084994416963 ], [ -4.785532798763668, 50.360905853269848 ], [ -4.78483792851809, 50.361656632615649 ], [ -4.784893837618308, 50.361960139159692 ], [ -4.784694162260384, 50.361992087216962 ], [ -4.784710136289017, 50.362159814517618 ], [ -4.78419896737273, 50.362311567789639 ], [ -4.784294811544534, 50.363230074436096 ], [ -4.784103123200926, 50.363230074436096 ], [ -4.784103123200926, 50.363453710836971 ], [ -4.784622279131531, 50.363485658894234 ], [ -4.784630266145848, 50.363725269323744 ], [ -4.7859241624652, 50.363653386194891 ], [ -4.786131824837441, 50.363469684865599 ], [ -4.786099876780173, 50.363309944579264 ], [ -4.788160526473956, 50.363254035479045 ], [ -4.78825637064576, 50.36303039907817 ], [ -4.788591825247074, 50.3629984510209 ] ] ] } },
{ "type": "Feature", "properties": { "Feature": "Pit" }, "geometry": { "type": "Polygon", "coordinates": [ [ [ -4.816143395957089, 50.371699811189117 ], [ -4.818818489918401, 50.369264789762795 ], [ -4.82142499172686, 50.368510276081402 ], [ -4.820636181969037, 50.366178142884358 ], [ -4.820807662351172, 50.363537344999472 ], [ -4.816692133179922, 50.362474166630228 ], [ -4.813468301995775, 50.357432643395455 ], [ -4.809592845359515, 50.359490407981077 ], [ -4.810724615881608, 50.360690770656028 ], [ -4.810313062964484, 50.363022903853064 ], [ -4.811101872722307, 50.364737707674422 ], [ -4.812748084390806, 50.364977780209408 ], [ -4.81247371577939, 50.367858650629287 ], [ -4.810861800187317, 50.369985007367767 ], [ -4.814531480365016, 50.371322554348424 ], [ -4.816143395957089, 50.371699811189117 ] ] ] } },
{ "type": "Feature", "properties": { "Feature": "Industrial" }, "geometry": { "type": "Polygon", "coordinates": [ [ [ -4.811239057028016, 50.372557213099796 ], [ -4.811376241333724, 50.37156262688341 ], [ -4.810278766888057, 50.371219666119138 ], [ -4.80942136497738, 50.370533744590595 ], [ -4.808186706226005, 50.371322554348424 ], [ -4.81000439827664, 50.372591509176225 ], [ -4.811239057028016, 50.372557213099796 ] ] ] } },
{ "type": "Feature", "properties": { "Feature": "Solar" }, "geometry": { "type": "Polygon", "coordinates": [ [ [ -4.803488143755494, 50.371253962195567 ], [ -4.802287781080547, 50.369264789762795 ], [ -4.801979116392703, 50.369470566221359 ], [ -4.80177333993414, 50.370019303444195 ], [ -4.80119030663488, 50.37029367205561 ], [ -4.801498971322724, 50.37231714056481 ], [ -4.802905110456234, 50.372077068029817 ], [ -4.803488143755494, 50.371253962195567 ] ] ] } },
{ "type": "Feature", "properties": { "Feature": "Pit" }, "geometry": { "type": "Polygon", "coordinates": [ [ [ -4.875766771940563, 50.374859568086549 ], [ -4.875640593736434, 50.37331388508597 ], [ -4.87418954438895, 50.371736657534356 ], [ -4.873274752409015, 50.371295033819905 ], [ -4.871066633836756, 50.371547390228166 ], [ -4.87153980210224, 50.374102498861781 ], [ -4.870372653714047, 50.374891112637584 ], [ -4.870877366530562, 50.375206558147909 ], [ -4.872454594082176, 50.37457566712726 ], [ -4.874631168103401, 50.375522003658233 ], [ -4.875766771940563, 50.374859568086549 ] ] ] } },
{ "type": "Feature", "properties": { "Feature": "Pit" }, "geometry": { "type": "Polygon", "coordinates": [ [ [ -4.888006057741079, 50.3716735684323 ], [ -4.886050295577079, 50.36987552902346 ], [ -4.88466233533166, 50.36861374698217 ], [ -4.88453615712753, 50.370695687350299 ], [ -4.885482493658499, 50.371547390228166 ], [ -4.886081840128111, 50.372525271310167 ], [ -4.886870453903917, 50.371894380289525 ], [ -4.888006057741079, 50.3716735684323 ] ] ] } },
{ "type": "Feature", "properties": { "Feature": "Pit" }, "geometry": { "type": "Polygon", "coordinates": [ [ [ -4.879867563574757, 50.372619904963265 ], [ -4.879583662615466, 50.371736657534363 ], [ -4.879110494349982, 50.371295033819912 ], [ -4.87866887063553, 50.369181548900748 ], [ -4.877154732185982, 50.369433905309009 ], [ -4.87642920751224, 50.370159429982749 ], [ -4.875987583797788, 50.370569509146172 ], [ -4.877438633145272, 50.372083647595716 ], [ -4.87879504883966, 50.372840716820491 ], [ -4.879867563574757, 50.372619904963265 ] ] ] } },
{ "type": "Feature", "properties": { "Feature": "Industrial" }, "geometry": { "type": "Polygon", "coordinates": [ [ [ -4.869110871672755, 50.366121727450611 ], [ -4.86945786173411, 50.363976697980412 ], [ -4.86652421848811, 50.362494104081897 ], [ -4.86261269416011, 50.363314262408736 ], [ -4.862549605058046, 50.363945153429384 ], [ -4.865830238365401, 50.364134420735574 ], [ -4.866713485794304, 50.364449866245899 ], [ -4.865861782916433, 50.365806281940287 ], [ -4.866019505671594, 50.365774737389252 ], [ -4.869110871672755, 50.366121727450611 ] ] ] } },
{ "type": "Feature", "properties": { "Feature": "Residential" }, "geometry": { "type": "Polygon", "coordinates": [ [ [ -4.855761813363017, 50.360528881883639 ], [ -4.857716802286476, 50.360012045731459 ], [ -4.856615716570965, 50.359764863223894 ], [ -4.856379769631927, 50.359225555934664 ], [ -4.855997760302055, 50.358899724447426 ], [ -4.855615750972184, 50.358528950686079 ], [ -4.853615819774623, 50.357910994417168 ], [ -4.853211339307701, 50.358798604330694 ], [ -4.852582147470266, 50.358776133193636 ], [ -4.852065311318087, 50.359832276635046 ], [ -4.854301189454686, 50.360281699376074 ], [ -4.855761813363017, 50.360528881883639 ] ] ] } },
{ "type": "Feature", "properties": { "Feature": "Pit" }, "geometry": { "type": "Polygon", "coordinates": [ [ [ -4.846341826704006, 50.362342208276949 ], [ -4.849885958188489, 50.358713692709507 ], [ -4.852586248843332, 50.354156952229459 ], [ -4.849717190022561, 50.34825006642199 ], [ -4.843303999717308, 50.345381007601219 ], [ -4.84094124539432, 50.347912530090134 ], [ -4.836215736748344, 50.345971696181962 ], [ -4.834696823254994, 50.349768979915339 ], [ -4.83570943225056, 50.353481879565749 ], [ -4.830477619106802, 50.354156952229459 ], [ -4.83241845301497, 50.35921999720729 ], [ -4.839253563735043, 50.361076447032495 ], [ -4.846341826704006, 50.362342208276949 ] ] ] } },
{ "type": "Feature", "properties": { "Feature": "Pit" }, "geometry": { "type": "Polygon", "coordinates": [ [ [ -4.81212790068218, 50.400149341967392 ], [ -4.809146727738801, 50.398093360627129 ], [ -4.810483115609971, 50.393364603544526 ], [ -4.811305508146075, 50.390589028735171 ], [ -4.810585914676984, 50.387916252992831 ], [ -4.807193545465553, 50.387299458590753 ], [ -4.803492779053081, 50.383187495910228 ], [ -4.800717204243728, 50.381645509905034 ], [ -4.798147227568402, 50.386065869786599 ], [ -4.797324835032296, 50.389252640864001 ], [ -4.80112840051178, 50.393159005410503 ], [ -4.801745194913859, 50.399121351297261 ], [ -4.8067823491975, 50.401794127039601 ], [ -4.81212790068218, 50.400149341967392 ] ] ] } },
{ "type": "Feature", "properties": { "Feature": "Pit" }, "geometry": { "type": "Polygon", "coordinates": [ [ [ -4.88983408080479, 50.363142111354485 ], [ -4.885895364811005, 50.363998353961833 ], [ -4.882042273077954, 50.361258377618327 ], [ -4.879901666559593, 50.359289019621436 ], [ -4.883412261249705, 50.358090279971151 ], [ -4.880586660645468, 50.357319661624544 ], [ -4.885295994985864, 50.356292170495728 ], [ -4.884439752378519, 50.357405285885278 ], [ -4.889149086718914, 50.357148413103076 ], [ -4.891889063062417, 50.361943371704207 ], [ -4.88983408080479, 50.363142111354485 ] ] ] } },
{ "type": "Feature", "properties": { "Feature": "Pit" }, "geometry": { "type": "Polygon", "coordinates": [ [ [ -4.745691641321315, 50.363022750372934 ], [ -4.746587300223879, 50.361871188926784 ], [ -4.745990194288837, 50.361402034263534 ], [ -4.746843202767468, 50.360250472817384 ], [ -4.74854921972473, 50.35901361052337 ], [ -4.745222486658069, 50.35786204907722 ], [ -4.741810452743543, 50.358032650772941 ], [ -4.741511899776023, 50.361188782143877 ], [ -4.744540079875163, 50.36306540079687 ], [ -4.745691641321315, 50.363022750372934 ] ] ] } }
]
}
