{
"type": "FeatureCollection",
"name": "Tongariro_feature_masks",
"crs": { "type": "name", "properties": { "name": "urn:ogc:def:crs:EPSG::2193" } },
"features": [
{ "type": "Feature", "properties": { "Feature": "Barren" }, "geometry": { "type": "Polygon", "coordinates": [ [ [ 1820279.817843221826479, 5643742.098313335329294 ], [ 1821197.907925312640145, 5643310.000889043323696 ], [ 1822258.608690287452191, 5644010.736401940695941 ], [ 1823626.596942150499672, 5642773.631922258995473 ], [ 1824279.519767667865381, 5642450.285090076737106 ], [ 1825907.613797070225701, 5643134.172912523150444 ], [ 1828583.747620996553451, 5645127.183438159525394 ], [ 1829277.887158910976723, 5646203.264592567458749 ], [ 1830772.271502503659576, 5646057.633214578032494 ], [ 1834175.940086886519566, 5644351.923772651702166 ], [ 1834059.519850871991366, 5641004.906013150699437 ], [ 1836148.850308249238878, 5644393.894286097958684 ], [ 1836487.167345357127488, 5647226.543382209725678 ], [ 1829881.594421279849485, 5647952.033642289228737 ], [ 1831693.132750458316877, 5649441.638556571677327 ], [ 1829769.949597423896194, 5649518.817553404718637 ], [ 1830114.415793387684971, 5651031.549733498133719 ], [ 1828072.976902032736689, 5651396.032527183182538 ], [ 1828389.994632690446451, 5653599.97809586673975 ], [ 1826618.395705933915451, 5654037.350521272979677 ], [ 1825944.126560305710882, 5654747.219742764718831 ], [ 1824231.072521367575973, 5656136.609743343666196 ], [ 1822687.945680351462215, 5656302.533665700815618 ], [ 1821592.281536441762, 5654425.147856700234115 ], [ 1820187.132660029456019, 5654992.748362003825605 ], [ 1818894.984128270996734, 5652836.331393181346357 ], [ 1817449.194935508538038, 5650805.841234962455928 ], [ 1817321.746635308722034, 5649063.353444530628622 ], [ 1818002.777495660120621, 5647460.72106811683625 ], [ 1817470.995172822847962, 5645364.06860778760165 ], [ 1820279.817843221826479, 5643742.098313335329294 ] ] ] } },
{ "type": "Feature", "properties": { "Feature": "Vegetation" }, "geometry": { "type": "Polygon", "coordinates": [ [ [ 1806959.296385940164328, 5654265.767404532060027 ], [ 1805893.124991458840668, 5643231.362240651622415 ], [ 1808901.12315460620448, 5643046.373669316060841 ], [ 1809013.209574621170759, 5641155.839944094419479 ], [ 1809398.818619225407019, 5640358.998480091802776 ], [ 1808142.192222593119368, 5639029.515630350448191 ], [ 1809241.322070890804753, 5637531.927002748474479 ], [ 1809296.324980800505728, 5639575.283025466836989 ], [ 1810324.766107553848997, 5641487.520834852010012 ], [ 1810786.843987207394093, 5639010.702957235276699 ], [ 1812532.597228418802842, 5638858.31469261366874 ], [ 1815120.719425292452797, 5636794.628813525661826 ], [ 1814246.917833553161472, 5634616.533444947563112 ], [ 1815117.839250915450975, 5633753.497070722281933 ], [ 1814543.177886336576194, 5632091.492587922140956 ], [ 1815664.797003690386191, 5631483.607392508536577 ], [ 1816957.935059915762395, 5632653.570849022828043 ], [ 1818442.199503408512101, 5631930.255555780604482 ], [ 1819346.429872368229553, 5632271.801428425125778 ], [ 1822498.930278863059357, 5635852.718012350611389 ], [ 1823760.814431801438332, 5640116.428063589148223 ], [ 1818448.719408015487716, 5640844.213569612242281 ], [ 1814159.399886468891054, 5644738.675929091870785 ], [ 1813779.703790501924232, 5650202.128744168207049 ], [ 1816376.988789191702381, 5655688.504406664520502 ], [ 1819102.305806707357988, 5658339.187516175210476 ], [ 1814145.668271330650896, 5661022.952923825010657 ], [ 1808984.887638098793104, 5657323.162908905185759 ], [ 1806959.296385940164328, 5654265.767404532060027 ] ] ] } },
{ "type": "Feature", "properties": { "Feature": "Scrub" }, "geometry": { "type": "Polygon", "coordinates": [ [ [ 1819308.956963801989332, 5658098.321853408589959 ], [ 1816859.145382154267281, 5655502.46944659948349 ], [ 1814478.91046337550506, 5650945.136917419731617 ], [ 1814223.801518277730793, 5646094.040990025736392 ], [ 1816094.244784631533548, 5643299.860030627809465 ], [ 1820472.109691220568493, 5641022.181229464709759 ], [ 1824859.015890483278781, 5640191.352152486331761 ], [ 1828632.45443942816928, 5642314.83928941283375 ], [ 1831137.761439169524238, 5644709.483253945596516 ], [ 1830008.721619960386306, 5645644.133999180048704 ], [ 1825087.799732990795746, 5641791.221808148548007 ], [ 1819955.447138355113566, 5643191.741541987285018 ], [ 1816677.517378319287673, 5645673.592179093509912 ], [ 1817495.55311505892314, 5646630.290743317455053 ], [ 1816597.249077830696478, 5649358.661847339011729 ], [ 1817588.620444518048316, 5652151.980413897894323 ], [ 1819917.059378676116467, 5654790.160368251614273 ], [ 1820029.343306959839538, 5655531.415878913365304 ], [ 1821449.470808014273643, 5655099.510907234624028 ], [ 1823090.952344002434984, 5657090.232274051755667 ], [ 1825256.866467742947862, 5656087.793054386042058 ], [ 1826797.332823469303548, 5654554.336090045049787 ], [ 1828790.906000111019239, 5653947.662727372720838 ], [ 1830480.490411235485226, 5654407.392043835483491 ], [ 1831809.509113570675254, 5649901.075693077407777 ], [ 1836673.365607410203665, 5648579.479714713990688 ], [ 1838795.476033446611837, 5654236.093878271058202 ], [ 1839448.545996591448784, 5658644.220454377122223 ], [ 1835729.574864168185741, 5657181.375071291811764 ], [ 1833938.234685669653118, 5658752.110573760233819 ], [ 1832434.552954098442569, 5656313.443870707415044 ], [ 1827114.120713737793267, 5657466.26313909702003 ], [ 1828296.087699095485732, 5658116.940697757527232 ], [ 1826603.392862476408482, 5659909.97265103738755 ], [ 1824823.054210503585637, 5660366.114155777730048 ], [ 1825437.298232376342639, 5663182.118777623400092 ], [ 1825505.600809228606522, 5663424.675517643801868 ], [ 1825007.091220514150336, 5663444.966575119644403 ], [ 1824564.462925712345168, 5663228.105804133228958 ], [ 1824186.392897888552397, 5662913.975180900655687 ], [ 1822990.553735298570246, 5662909.086007310077548 ], [ 1822656.957366359885782, 5661930.398728483356535 ], [ 1819308.956963801989332, 5658098.321853408589959 ] ] ] } },
{ "type": "Feature", "properties": { "Feature": "Barren" }, "geometry": { "type": "Polygon", "coordinates": [ [ [ 1826473.431486148852855, 5666172.16868796851486 ], [ 1825132.040046294219792, 5660697.490404834970832 ], [ 1826950.754156364127994, 5660077.763240927830338 ], [ 1828067.251439603744075, 5659001.61206126306206 ], [ 1829992.90246591088362, 5659036.015237869694829 ], [ 1832154.010777640156448, 5659267.177253255620599 ], [ 1832144.59930843138136, 5661332.251732129603624 ], [ 1832735.828899848274887, 5663992.135180611163378 ], [ 1831663.160636536311358, 5665362.606850695796311 ], [ 1832698.829581155441701, 5667510.176062999293208 ], [ 1830084.524942073039711, 5668177.183315368369222 ], [ 1827641.037673089653254, 5667431.633514307439327 ], [ 1826473.431486148852855, 5666172.16868796851486 ] ] ] } },
{ "type": "Feature", "properties": { "Feature": "Vegetation" }, "geometry": { "type": "Polygon", "coordinates": [ [ [ 1823370.995965779526159, 5663181.59629656560719 ], [ 1823922.364835980348289, 5663794.375909422524273 ], [ 1824440.260831164661795, 5667122.126979745924473 ], [ 1826019.031091163866222, 5668619.545026572421193 ], [ 1828632.336870583705604, 5669686.660584658384323 ], [ 1833346.825504022650421, 5668747.991912631317973 ], [ 1835166.48147772368975, 5666322.2448387183249 ], [ 1836326.679674280108884, 5664201.613604988902807 ], [ 1835676.556590906810015, 5661821.133023432455957 ], [ 1834506.376667223405093, 5659884.79487563483417 ], [ 1834336.321578428614885, 5659404.165491914376616 ], [ 1835771.510176715673879, 5657589.581877049058676 ], [ 1839586.486884484766051, 5659473.804387290030718 ], [ 1840766.988183852517977, 5663152.144177402369678 ], [ 1840036.200845855055377, 5664717.515323580242693 ], [ 1840253.786038510734215, 5665282.315409426577389 ], [ 1838093.608320355881006, 5665233.90731334220618 ], [ 1837683.533200758742169, 5666389.245561553165317 ], [ 1834758.3862315248698, 5669048.766328736208379 ], [ 1833599.143978100502864, 5668997.628712864592671 ], [ 1833262.542736466275528, 5670407.617757267318666 ], [ 1829152.998624074971303, 5672271.343373996205628 ], [ 1828284.18191405152902, 5671496.678349899128079 ], [ 1827770.032290399307385, 5672197.266556077636778 ], [ 1826773.626882546581328, 5672397.495835069566965 ], [ 1826504.08321848907508, 5673090.926456252112985 ], [ 1824349.468753447989002, 5673295.552955716848373 ], [ 1820890.028579764533788, 5669079.787901057861745 ], [ 1814770.499697922030464, 5661022.428926824592054 ], [ 1819156.752423644531518, 5658844.012350445613265 ], [ 1821706.48500684951432, 5661743.310424411669374 ], [ 1822701.78024990693666, 5663114.937669949606061 ], [ 1823370.995965779526159, 5663181.59629656560719 ] ] ] } },
{ "type": "Feature", "properties": { "Feature": "Scrub" }, "geometry": { "type": "Polygon", "coordinates": [ [ [ 1824543.928175083361566, 5663748.024542671628296 ], [ 1825665.182782996445894, 5664058.653324536979198 ], [ 1826395.507130983052775, 5667008.814887341111898 ], [ 1827277.645177790196612, 5667497.563637344166636 ], [ 1829080.081270499387756, 5668245.113662978634238 ], [ 1831391.482603767886758, 5668120.173061352223158 ], [ 1833105.93992094649002, 5667383.735828582197428 ], [ 1832072.51861418876797, 5665557.258188303560019 ], [ 1833087.973065358120948, 5663784.296383400447667 ], [ 1832455.815193543909118, 5661974.513990717940032 ], [ 1832413.818619119003415, 5659061.487715232186019 ], [ 1829422.721492490265518, 5658664.041607234627008 ], [ 1829932.761145991738886, 5657106.249770645052195 ], [ 1831105.655920131597668, 5656928.824729677289724 ], [ 1830106.319292660336941, 5658472.544839385896921 ], [ 1830868.318159231683239, 5658678.666860132478178 ], [ 1831480.182889303425327, 5658317.737157581374049 ], [ 1833161.589157305425033, 5658039.239399972371757 ], [ 1833815.956200622254983, 5659105.438185185194016 ], [ 1834596.991983173647895, 5661424.961597640998662 ], [ 1834898.790708974702284, 5664073.098707353696227 ], [ 1834133.295440694782883, 5666753.150202000513673 ], [ 1833475.355294037144631, 5667829.892779910005629 ], [ 1832202.295473773498088, 5668439.077950901351869 ], [ 1829906.677773210220039, 5669106.621931386180222 ], [ 1827183.042025054804981, 5668843.069648320786655 ], [ 1824674.245173327159137, 5666744.034592139534652 ], [ 1824543.928175083361566, 5663748.024542671628296 ] ] ] } },
{ "type": "Feature", "properties": { "Feature": "Vegetation" }, "geometry": { "type": "Polygon", "coordinates": [ [ [ 1828670.234398860717192, 5658493.748446137644351 ], [ 1828533.822406700346619, 5657301.217560040764511 ], [ 1829426.958179507637396, 5657166.295659452676773 ], [ 1829638.988857675343752, 5657758.337984609417617 ], [ 1828988.238586123567075, 5658658.487803857773542 ], [ 1828670.234398860717192, 5658493.748446137644351 ] ] ] } },
{ "type": "Feature", "properties": { "Feature": "Vegetation" }, "geometry": { "type": "Polygon", "coordinates": [ [ [ 1830372.826240703929216, 5658248.009304912760854 ], [ 1831226.011036382522434, 5657330.870464459992945 ], [ 1831178.051924512023106, 5656853.66901698615402 ], [ 1832250.353333609877154, 5656484.685656999237835 ], [ 1833080.441000471357256, 5657645.678880780935287 ], [ 1831791.992401816416532, 5658151.705864673480392 ], [ 1831269.050539519637823, 5657927.871766175143421 ], [ 1830582.199564553331584, 5658459.394119422882795 ], [ 1830372.826240703929216, 5658248.009304912760854 ] ] ] } },
{ "type": "Feature", "properties": { "Feature": "Mountain peaks" }, "geometry": { "type": "Polygon", "coordinates": [ [ [ 1822735.694768809713423, 5647744.747230339795351 ], [ 1822659.516886928817257, 5647614.536509979516268 ], [ 1822576.955951611977071, 5647490.889572825282812 ], [ 1822488.365626163082197, 5647374.335704209282994 ], [ 1822394.125326733104885, 5647265.373811151832342 ], [ 1822294.638596585718915, 5647164.470289312303066 ], [ 1822190.331378191709518, 5647072.057029155083001 ], [ 1822081.650190577143803, 5646988.529569846577942 ], [ 1821969.060219639213756, 5646914.245408728718758 ], [ 1821853.043329657055438, 5646849.522473541088402 ], [ 1821734.096004363615066, 5646794.637763887643814 ], [ 1821612.727226380025968, 5646749.826167720369995 ], [ 1821489.456303978338838, 5646715.279457847587764 ], [ 1821364.810654364759102, 5646691.145472749136388 ], [ 1821239.323552869493142, 5646677.527485146187246 ], [ 1821113.531857528025284, 5646674.483761016279459 ], [ 1820987.973718697903678, 5646682.027310912497342 ], [ 1820863.186283304123208, 5646700.125834649428725 ], [ 1820739.703403498278931, 5646728.701859580352902 ], [ 1820618.053359276847914, 5646767.633071852847934 ], [ 1820498.756604738067836, 5646816.752839274704456 ], [ 1820382.323547469917685, 5646875.85092353913933 ], [ 1820269.252370442030951, 5646944.674378775060177 ], [ 1820160.026905553415418, 5647022.928632630966604 ], [ 1820055.114567897748202, 5647110.278745278716087 ], [ 1819954.96435944433324, 5647206.350840982049704 ], [ 1819860.004950593458489, 5647310.733706176280975 ], [ 1819770.642847762675956, 5647422.980547229759395 ], [ 1819687.260654790094122, 5647542.610900432802737 ], [ 1819610.215435558930039, 5647669.11268609110266 ], [ 1819539.837184845469892, 5647801.944397972896695 ], [ 1819476.427413936238736, 5647940.537418818101287 ], [ 1819420.257857103133574, 5648084.298452004790306 ], [ 1819371.569304483011365, 5648232.612059064209461 ], [ 1819330.570566490991041, 5648384.84329220186919 ], [ 1819297.437574172159657, 5648540.340410612523556 ], [ 1819272.312619572505355, 5648698.437668995000422 ], [ 1819255.303739338181913, 5648858.458166369237006 ], [ 1819246.484244467224926, 5649019.716743037104607 ], [ 1819245.89239817392081, 5649181.52291329856962 ], [ 1819253.53124358993955, 5649343.183821385726333 ], [ 1819269.368581988615915, 5649504.007208000868559 ], [ 1819293.33710193564184, 5649663.304374705068767 ], [ 1819325.334658841136843, 5649820.393133512698114 ], [ 1819365.224703944753855, 5649974.60072904266417 ], [ 1819412.836861018557101, 5650125.266720674932003 ], [ 1819467.967648413265124, 5650271.745812370441854 ], [ 1819530.381343560758978, 5650413.41061800159514 ], [ 1819599.810986282303929, 5650549.654350315220654 ], [ 1819675.95951674785465, 5650679.893421972170472 ], [ 1819758.501043275231495, 5650803.56994747184217 ], [ 1819847.082234646193683, 5650920.154135220684111 ], [ 1819941.32383099803701, 5651029.146559426560998 ], [ 1820040.82226687669754, 5651130.080302034504712 ], [ 1820145.151399522088468, 5651222.52295549493283 ], [ 1820253.864334949990734, 5651306.078477714210749 ], [ 1820366.495344048365951, 5651380.388891186565161 ], [ 1820482.561860362300649, 5651445.135818986222148 ], [ 1820601.566551044583321, 5651500.041850990615785 ], [ 1820722.999451929936185, 5651544.871734418906271 ], [ 1820846.34015758568421, 5651579.433383557014167 ], [ 1820971.06005679955706, 5651603.578704314306378 ], [ 1821096.624603807926178, 5651617.204230014234781 ], [ 1821222.495615461142734, 5651620.25156569853425 ], [ 1821348.133584280265495, 5651612.707639019005001 ], [ 1821472.999997422564775, 5651594.604756607674062 ], [ 1821596.559651405317709, 5651566.020465694367886 ], [ 1821718.282952611800283, 5651527.077221558429301 ], [ 1821837.64819348952733, 5651477.94186226092279 ], [ 1821954.143794630654156, 5651418.824892895296216 ], [ 1822067.270502926781774, 5651349.979582454077899 ], [ 1822176.543536321027204, 5651271.700877242721617 ], [ 1822281.494665812235326, 5651184.324135457165539 ], [ 1822381.674225686816499, 5651088.223688464611769 ], [ 1822476.653043336002156, 5650983.811234928667545 ], [ 1822566.024280249839649, 5650871.534074744209647 ], [ 1822649.405176307540387, 5650751.873190392740071 ], [ 1822726.438689814414829, 5650625.34118396230042 ], [ 1822796.795026284176856, 5650492.480078768916428 ], [ 1822860.173049382166937, 5650353.858995004557073 ], [ 1822916.301568057155237, 5650210.071709454059601 ], [ 1822964.940494344336912, 5650061.734109771437943 ], [ 1823005.881866950774565, 5649909.481554271653295 ], [ 1823038.950736364815384, 5649753.966148592531681 ], [ 1823064.005907703423873, 5649595.853950935415924 ], [ 1823080.940538329770789, 5649435.822117894887924 ], [ 1823089.682587682735175, 5649274.556003128178418 ], [ 1823090.195117657305673, 5649112.746221312321723 ], [ 1823082.476442247396335, 5648951.085690007545054 ], [ 1823066.560126091353595, 5648790.266662068665028 ], [ 1823042.514831961831078, 5648630.977761356160045 ], [ 1823010.444018069189042, 5648473.901034420356154 ], [ 1822970.485486624063924, 5648319.709030773490667 ], [ 1822922.810785674257204, 5648169.06192425545305 ], [ 1822867.624467010376975, 5648022.604687771759927 ], [ 1822805.163203361909837, 5647880.964333508163691 ], [ 1822735.694768809713423, 5647744.747230339795351 ] ] ] } },
{ "type": "Feature", "properties": { "Feature": "Mountain peaks" }, "geometry": { "type": "Polygon", "coordinates": [ [ [ 1828118.459998227190226, 5661485.702676892280579 ], [ 1828069.571580518735573, 5661431.216617829166353 ], [ 1828018.059972926042974, 5661380.900480560958385 ], [ 1827964.145732290344313, 5661334.969676384702325 ], [ 1827908.059687049128115, 5661293.620839517563581 ], [ 1827850.041949465405196, 5661257.030985908582807 ], [ 1827790.340888414764777, 5661225.35675601195544 ], [ 1827729.212067062268034, 5661198.733744777739048 ], [ 1827666.917149966116995, 5661177.275921667926013 ], [ 1827603.722784281941131, 5661161.075143212452531 ], [ 1827539.899459801148623, 5661150.20076016895473 ], [ 1827475.720352701842785, 5661144.699320950545371 ], [ 1827411.460157913854346, 5661144.594372591935098 ], [ 1827347.393915024353191, 5661149.886360108852386 ], [ 1827283.795832823961973, 5661160.552624671719968 ], [ 1827220.938117349287495, 5661176.547500587068498 ], [ 1827159.089808497577906, 5661197.802510697394609 ], [ 1827098.515630121110007, 5661224.226659342646599 ], [ 1827039.474858491914347, 5661255.706821662373841 ], [ 1826982.220213962486014, 5661292.108227524906397 ], [ 1826926.996780494926497, 5661333.275038090534508 ], [ 1826874.040957714896649, 5661379.031012485735118 ], [ 1826823.579449905082583, 5661429.180261777713895 ], [ 1826775.82829624786973, 5661483.508087034337223 ], [ 1826730.991946486756206, 5661541.781897872686386 ], [ 1826689.262385927140713, 5661603.752207605168223 ], [ 1826650.818313490599394, 5661669.153700695373118 ], [ 1826615.824376413132995, 5661737.706368032842875 ], [ 1826584.430464761098847, 5661809.116705096326768 ], [ 1826556.77106891432777, 5661883.078967968933284 ], [ 1826532.964702655328438, 5661959.276481780223548 ], [ 1826513.113394469488412, 5662037.382996035739779 ], [ 1826497.302249150117859, 5662117.064080998301506 ], [ 1826485.5990816866979, 5662197.978559175506234 ], [ 1826478.054125015623868, 5662279.779965803027153 ], [ 1826474.699812869541347, 5662362.118032056838274 ], [ 1826475.550638771615922, 5662444.640184661373496 ], [ 1826480.603091739118099, 5662526.9930554702878 ], [ 1826489.83566905464977, 5662608.823994577862322 ], [ 1826503.208966069854796, 5662689.782580450177193 ], [ 1826520.665842721471563, 5662769.522120638750494 ], [ 1826542.1316660316661, 5662847.701136637479067 ], [ 1826567.514627665281296, 5662923.984826509840786 ], [ 1826596.706135129090399, 5662998.046499033458531 ], [ 1826629.581275084754452, 5663069.568973203189671 ], [ 1826665.999346695141867, 5663138.245937085710466 ], [ 1826705.804462844738737, 5663203.783260215073824 ], [ 1826748.826216637156904, 5663265.900253877975047 ], [ 1826794.880410335026681, 5663324.330873874016106 ], [ 1826843.769843644462526, 5663378.82486061938107 ], [ 1826895.285157974343747, 5663429.148811654187739 ], [ 1826949.205733053153381, 5663475.087181990034878 ], [ 1827005.300632062135264, 5663516.443207951262593 ], [ 1827063.329591245157644, 5663553.0397505806759 ], [ 1827123.044049726100639, 5663584.720054967328906 ], [ 1827184.188215106958523, 5663611.348422233946621 ], [ 1827246.500160282012075, 5663632.810791269876063 ], [ 1827309.712946749059483, 5663649.015227763913572 ], [ 1827373.555769523372874, 5663659.892318367958069 ], [ 1827437.755118811968714, 5663665.395468344911933 ], [ 1827502.035953335929662, 5663665.501101387664676 ], [ 1827566.122880351962522, 5663660.208760760724545 ], [ 1827629.741337160812691, 5663649.541111341677606 ], [ 1827692.618769107852131, 5663633.543842514976859 ], [ 1827754.485798948677257, 5663612.28547238279134 ], [ 1827815.077382502844557, 5663585.857054095715284 ], [ 1827874.133945693261921, 5663554.37178557086736 ], [ 1827931.402497969102114, 5663517.964524305425584 ], [ 1827986.63771740347147, 5663476.791209328919649 ], [ 1828039.603002707008272, 5663431.028192806988955 ], [ 1828090.07148769707419, 5663380.871484164148569 ], [ 1828137.827013803413138, 5663326.535909965634346 ], [ 1828182.665056470548734, 5663268.254193177446723 ], [ 1828224.393601427553222, 5663206.275955765508115 ], [ 1828262.833967127371579, 5663140.866648905910552 ], [ 1828297.821569763822481, 5663072.306415408849716 ], [ 1828329.206627646461129, 5663000.888889250345528 ], [ 1828356.854801891837269, 5662926.919937361963093 ], [ 1828380.647770722396672, 5662850.716349055990577 ], [ 1828400.483734882203862, 5662772.604478768073022 ], [ 1828416.277852120576426, 5662692.918847878463566 ], [ 1828427.962598802754655, 5662612.000711661763489 ], [ 1828435.488057177979499, 5662530.196597471833229 ], [ 1828438.822127131745219, 5662447.856820459477603 ], [ 1828437.950661497889087, 5662365.333983174525201 ], [ 1828432.877524401061237, 5662282.98146547190845 ], [ 1828423.624572478700429, 5662201.151911220513284 ], [ 1828410.231558986473829, 5662120.195718262344599 ], [ 1828392.755961349932477, 5662040.459538096562028 ], [ 1828371.272732859477401, 5661962.284791738726199 ], [ 1828345.873979667201638, 5661886.006208072416484 ], [ 1828316.668564456747845, 5661811.950390951707959 ], [ 1828283.781638532411307, 5661740.434421193785965 ], [ 1828247.354104398982599, 5661671.764499438926578 ], [ 1828207.542011069599539, 5661606.234635658562183 ], [ 1828164.515884830849245, 5661544.125390941277146 ], [ 1828118.459998227190226, 5661485.702676892280579 ] ] ] } },
{ "type": "Feature", "properties": { "Feature": "Mountain peaks" }, "geometry": { "type": "Polygon", "coordinates": [ [ [ 1830561.192255532136187, 5664288.260535586625338 ], [ 1830506.142170961014926, 5664224.909890939481556 ], [ 1830448.035860566422343, 5664166.254793677479029 ], [ 1830387.12211926933378, 5664112.546348252333701 ], [ 1830323.661741722142324, 5664064.014478578232229 ], [ 1830257.926406326238066, 5664020.866944552399218 ], [ 1830190.197513056453317, 5663983.288453446701169 ], [ 1830120.764979977626354, 5663951.439869930036366 ], [ 1830049.926003608852625, 5663925.457528123632073 ], [ 1829977.983788411132991, 5663905.452648587524891 ], [ 1829905.246250793570653, 5663891.510862740688026 ], [ 1829832.02470316272229, 5663883.691846725530922 ], [ 1829758.632523586973548, 5663882.029066294431686 ], [ 1829685.383816723478958, 5663886.529633782804012 ], [ 1829612.592071736929938, 5663897.174277790822089 ], [ 1829540.568822838831693, 5663913.917425694875419 ], [ 1829469.622318191686645, 5663936.687398631125689 ], [ 1829400.056202774401754, 5663965.386718133464456 ], [ 1829332.168220867170021, 5663999.892523104324937 ], [ 1829266.248943588929251, 5664040.057095347903669 ], [ 1829202.580526962410659, 5664085.70849141664803 ], [ 1829141.435505729867145, 5664136.651278091594577 ], [ 1829083.075628088787198, 5664192.66736834961921 ], [ 1829027.750736285699531, 5664253.516954250633717 ], [ 1828975.697697833878919, 5664318.939532786607742 ], [ 1828927.139391945907846, 5664388.655020289123058 ], [ 1828882.283755460288376, 5664462.36495066806674 ], [ 1828841.322892382740974, 5664539.75375235080719 ], [ 1828804.432250825222582, 5664620.49009848665446 ], [ 1828771.769870901014656, 5664704.228324647061527 ], [ 1828743.475706806406379, 5664790.60990796610713 ], [ 1828719.671025976538658, 5664879.26500141993165 ], [ 1828700.457887969911098, 5664969.814016670919955 ], [ 1828685.918705306015909, 5665061.869248731993139 ], [ 1828676.11588818882592, 5665155.03653549682349 ], [ 1828671.09157465188764, 5665248.916945054195821 ], [ 1828670.867447385564446, 5665343.108483537100255 ], [ 1828675.444637997774407, 5665437.207816254347563 ], [ 1828684.80371924280189, 5665530.811994693242013 ], [ 1828698.904785253107548, 5665623.52018201444298 ], [ 1828717.687619468662888, 5665714.935369666665792 ], [ 1828741.071949685458094, 5665804.666077733971179 ], [ 1828768.957789042964578, 5665892.32803176343441 ], [ 1828801.225861667655408, 5665977.545808869414032 ], [ 1828837.73811110551469, 5666059.954446042887866 ], [ 1828878.338289436185732, 5666139.201003802008927 ], [ 1828922.852624594932422, 5666214.946078429929912 ], [ 1828971.090563042322174, 5666286.86525634676218 ], [ 1829022.84558466821909, 5666354.650504353456199 ], [ 1829077.896086415741593, 5666418.011489771306515 ], [ 1829136.006330876844004, 5666476.676824823021889 ], [ 1829196.927455815253779, 5666530.395229883491993 ], [ 1829260.398540246766061, 5666578.936610630713403 ], [ 1829326.147722571855411, 5666622.093044425360858 ], [ 1829393.893365886993706, 5666659.679671722464263 ], [ 1829463.345265531679615, 5666691.535488638095558 ], [ 1829534.205893618986011, 5666717.524037283845246 ], [ 1829606.171675221296027, 5666737.53399090282619 ], [ 1829678.934290702221915, 5666751.479631255380809 ], [ 1829752.1819985632319, 5666759.301216248422861 ], [ 1829825.600973133696243, 5666760.965236173011363 ], [ 1829898.876651280559599, 5666756.46455748192966 ], [ 1829971.695082352729514, 5666745.818453482352197 ], [ 1830043.744275538716465, 5666729.072521780617535 ], [ 1830114.715538756223395, 5666706.298488867469132 ], [ 1830184.304803400300443, 5666677.593902677297592 ], [ 1830252.213929106714204, 5666643.081714423373342 ], [ 1830318.151982974493876, 5666602.909751520492136 ], [ 1830381.836487708147615, 5666557.250083872117102 ], [ 1830442.994633299997076, 5666506.298286228440702 ], [ 1830501.364446982042864, 5666450.272599788382649 ], [ 1830556.695916508324444, 5666389.412996689788997 ], [ 1830608.752061812439933, 5666323.980151333846152 ], [ 1830657.309950524475425, 5666254.254323061555624 ], [ 1830702.161652941955253, 5666180.534154891036451 ], [ 1830743.115132377017289, 5666103.13539357110858 ], [ 1830779.995067053008825, 5666022.389536362141371 ], [ 1830812.643600048031658, 5665938.642410431057215 ], [ 1830840.921014099381864, 5665852.252690921537578 ], [ 1830864.70632836362347, 5665763.590364067815244 ], [ 1830883.897814651252702, 5665673.035141976550221 ], [ 1830898.41343090753071, 5665580.974835831671953 ], [ 1830908.191170161124319, 5665487.80369455832988 ], [ 1830913.189323464874178, 5665393.920716024935246 ], [ 1830913.386655740207061, 5665299.727938049472868 ], [ 1830908.782493843697011, 5665205.62871653214097 ], [ 1830899.396726510021836, 5665112.025998082943261 ], [ 1830885.269716212991625, 5665019.320594562217593 ], [ 1830866.462123426841572, 5664927.909466887824237 ], [ 1830843.054643981158733, 5664838.184025510214269 ], [ 1830815.147660826100037, 5664750.528454763814807 ], [ 1830782.860811611870304, 5664665.318068319931626 ], [ 1830746.332474063150585, 5664582.917702725157142 ], [ 1830705.719171375967562, 5664503.680155938491225 ], [ 1830661.194900176953524, 5664427.94467749260366 ], [ 1830612.950384009396657, 5664356.035516773350537 ], [ 1830561.192255532136187, 5664288.260535586625338 ] ] ] } },
{ "type": "Feature", "properties": { "Feature": "Forestry" }, "geometry": { "type": "Polygon", "coordinates": [ [ [ 1833755.959149906877428, 5670423.461962722241879 ], [ 1833446.617471006000414, 5670038.488669333048165 ], [ 1833689.698978403350338, 5669135.408588696271181 ], [ 1834927.26169904624112, 5669122.366512495093048 ], [ 1836075.29849016899243, 5667988.994383172132075 ], [ 1836602.427808343665674, 5667877.561262341216207 ], [ 1836616.289256333373487, 5667411.286182095296681 ], [ 1837044.629578505177051, 5667111.676216861233115 ], [ 1838206.680821802234277, 5666765.907944140024483 ], [ 1838148.263694218359888, 5665531.441120981238782 ], [ 1840299.060769119067118, 5665358.333533280529082 ], [ 1840326.409863171167672, 5664201.852205812931061 ], [ 1841346.048364218790084, 5664009.273037623614073 ], [ 1842642.858869796385989, 5669398.179269341751933 ], [ 1838159.625183898257092, 5670046.047264480032027 ], [ 1833755.959149906877428, 5670423.461962722241879 ] ] ] } },
{ "type": "Feature", "properties": { "Feature": "Forestry" }, "geometry": { "type": "Polygon", "coordinates": [ [ [ 1823856.267759423004463, 5639578.077863769605756 ], [ 1825618.813955799210817, 5640295.573646260425448 ], [ 1828200.040503953350708, 5640435.445937662385404 ], [ 1829267.526519095059484, 5640219.630854316055775 ], [ 1829569.585848631337285, 5639134.883607876487076 ], [ 1830526.779037714004517, 5639229.521037085913122 ], [ 1831205.421515086200088, 5637979.822356815449893 ], [ 1831401.708283019252121, 5636559.991362794302404 ], [ 1829888.014056325890124, 5634576.177713504992425 ], [ 1826503.870219343574718, 5630556.767721961252391 ], [ 1824744.230472560739145, 5629870.265211381949484 ], [ 1824319.721196111291647, 5628376.429061287082732 ], [ 1821530.922558113001287, 5629163.59387887455523 ], [ 1815766.457310267258435, 5630924.410262214019895 ], [ 1817266.874074850231409, 5631743.109245033934712 ], [ 1818392.675596989458427, 5631096.785956335254014 ], [ 1820217.260393923381343, 5631567.708158218301833 ], [ 1820682.602609775029123, 5632845.402258964255452 ], [ 1822025.87887659529224, 5634804.955867595039308 ], [ 1822835.878054101020098, 5635611.642079216428101 ], [ 1823856.267759423004463, 5639578.077863769605756 ] ] ] } }
]
}
